{
  "type": "FeatureCollection",
  "features": [
    {
      "type": "Feature",
      "properties": {
        "norad_id": 25730,
        "name": "FENGYUN 1C",
        "group": "fengyun-1c-debris",
        "lat": 6.9428760127325715,
        "lon": 60.22122510523226,
        "alt_km": 800.9439008038034,
        "timestamp": "2025-12-21T03:56:51.107639+00:00",
        "meta_object_name": "FENGYUN 1C",
        "meta_object_id": "1999-025A",
        "meta_epoch": "2025-12-20T17:48:41.372064",
        "meta_mean_motion": 14.26089069,
        "meta_eccentricity": 0.001038,
        "meta_inclination": 98.883,
        "meta_ra_of_asc_node": 60.8844,
        "meta_arg_of_pericenter": 46.7026,
        "meta_mean_anomaly": 313.5018,
        "meta_ephemeris_type": 0,
        "meta_classification_type": "U",
        "meta_norad_cat_id": 25730,
        "meta_element_set_no": 999,
        "meta_rev_at_epoch": 37251,
        "meta_bstar": 0.00076861,
        "meta_mean_motion_dot": 1.793e-05,
        "meta_mean_motion_ddot": 0,
        "tle_line1": "1 25730U 99025A   25354.74214551  .00001793  00000+0  76861-3 0  9990",
        "tle_line2": "2 25730  98.8830  60.8844 0010380  46.7026 313.5018 14.26089069372516"
      },
      "geometry": {
        "type": "Point",
        "coordinates": [
          60.22122510523226,
          6.9428760127325715
        ]
      }
    },
    {
      "type": "Feature",
      "properties": {
        "norad_id": 29733,
        "name": "FENGYUN 1C DEB",
        "group": "fengyun-1c-debris",
        "lat": -2.3554190435952544,
        "lon": 50.3318709300429,
        "alt_km": 1713.2953659209597,
        "timestamp": "2025-12-21T03:56:51.107655+00:00",
        "meta_object_name": "FENGYUN 1C DEB",
        "meta_object_id": "1999-025X",
        "meta_epoch": "2025-12-20T02:12:18.520128",
        "meta_mean_motion": 12.96483633,
        "meta_eccentricity": 0.05697528,
        "meta_inclination": 99.2243,
        "meta_ra_of_asc_node": 49.0393,
        "meta_arg_of_pericenter": 185.1112,
        "meta_mean_anomaly": 208.3107,
        "meta_ephemeris_type": 0,
        "meta_classification_type": "U",
        "meta_norad_cat_id": 29733,
        "meta_element_set_no": 999,
        "meta_rev_at_epoch": 89215,
        "meta_bstar": 0.001449954,
        "meta_mean_motion_dot": 8.42e-06,
        "meta_mean_motion_ddot": 0,
        "tle_line1": "1 29733U 99025X   25354.09188102  .00000842  00000+0  14500-2 0  9992",
        "tle_line2": "2 29733  99.2243  49.0393 0569752 185.1112 208.3107 12.96483633892157"
      },
      "geometry": {
        "type": "Point",
        "coordinates": [
          50.3318709300429,
          -2.3554190435952544
        ]
      }
    },
    {
      "type": "Feature",
      "properties": {
        "norad_id": 29734,
        "name": "FENGYUN 1C DEB",
        "group": "fengyun-1c-debris",
        "lat": 24.429842767390724,
        "lon": -80.5166345926019,
        "alt_km": 887.711421779286,
        "timestamp": "2025-12-21T03:56:51.107666+00:00",
        "meta_object_name": "FENGYUN 1C DEB",
        "meta_object_id": "1999-025Y",
        "meta_epoch": "2025-12-20T18:39:54.596736",
        "meta_mean_motion": 12.91346994,
        "meta_eccentricity": 0.061567,
        "meta_inclination": 99.1705,
        "meta_ra_of_asc_node": 283.3677,
        "meta_arg_of_pericenter": 353.5241,
        "meta_mean_anomaly": 30.5966,
        "meta_ephemeris_type": 0,
        "meta_classification_type": "U",
        "meta_norad_cat_id": 29734,
        "meta_element_set_no": 999,
        "meta_rev_at_epoch": 88652,
        "meta_bstar": 0.0027523,
        "meta_mean_motion_dot": 1.682e-05,
        "meta_mean_motion_ddot": 0,
        "tle_line1": "1 29734U 99025Y   25354.77771524  .00001682  00000+0  27523-2 0  9996",
        "tle_line2": "2 29734  99.1705 283.3677 0615670 353.5241  30.5966 12.91346994886528"
      },
      "geometry": {
        "type": "Point",
        "coordinates": [
          -80.5166345926019,
          24.429842767390724
        ]
      }
    },
    {
      "type": "Feature",
      "properties": {
        "norad_id": 29735,
        "name": "FENGYUN 1C DEB",
        "group": "fengyun-1c-debris",
        "lat": 12.476135019615134,
        "lon": 90.8145131515628,
        "alt_km": 830.6334792018761,
        "timestamp": "2025-12-21T03:56:51.107676+00:00",
        "meta_object_name": "FENGYUN 1C DEB",
        "meta_object_id": "1999-025Z",
        "meta_epoch": "2025-12-20T17:40:54.071616",
        "meta_mean_motion": 12.75060451,
        "meta_eccentricity": 0.0697502,
        "meta_inclination": 99.3914,
        "meta_ra_of_asc_node": 268.3598,
        "meta_arg_of_pericenter": 157.4579,
        "meta_mean_anomaly": 205.8805,
        "meta_ephemeris_type": 0,
        "meta_classification_type": "U",
        "meta_norad_cat_id": 29735,
        "meta_element_set_no": 999,
        "meta_rev_at_epoch": 87517,
        "meta_bstar": 0.0014704,
        "meta_mean_motion_dot": 8.26e-06,
        "meta_mean_motion_ddot": 0,
        "tle_line1": "1 29735U 99025Z   25354.73673694  .00000826  00000+0  14704-2 0  9998",
        "tle_line2": "2 29735  99.3914 268.3598 0697502 157.4579 205.8805 12.75060451875178"
      },
      "geometry": {
        "type": "Point",
        "coordinates": [
          90.8145131515628,
          12.476135019615134
        ]
      }
    },
    {
      "type": "Feature",
      "properties": {
        "norad_id": 29736,
        "name": "FENGYUN 1C DEB",
        "group": "fengyun-1c-debris",
        "lat": 64.19548778712736,
        "lon": 12.990078473630398,
        "alt_km": 1167.766768311736,
        "timestamp": "2025-12-21T03:56:51.107686+00:00",
        "meta_object_name": "FENGYUN 1C DEB",
        "meta_object_id": "1999-025AA",
        "meta_epoch": "2025-12-19T23:22:44.870016",
        "meta_mean_motion": 12.57503149,
        "meta_eccentricity": 0.0724856,
        "meta_inclination": 99.4031,
        "meta_ra_of_asc_node": 171.9873,
        "meta_arg_of_pericenter": 183.1755,
        "meta_mean_anomaly": 312.1954,
        "meta_ephemeris_type": 0,
        "meta_classification_type": "U",
        "meta_norad_cat_id": 29736,
        "meta_element_set_no": 999,
        "meta_rev_at_epoch": 86635,
        "meta_bstar": 0.0014432,
        "meta_mean_motion_dot": 6.26e-06,
        "meta_mean_motion_ddot": 0,
        "tle_line1": "1 29736U 99025AA  25353.97413044  .00000626  00000+0  14432-2 0  9991",
        "tle_line2": "2 29736  99.4031 171.9873 0724856 183.1755 312.1954 12.57503149866353"
      },
      "geometry": {
        "type": "Point",
        "coordinates": [
          12.990078473630398,
          64.19548778712736
        ]
      }
    },
    {
      "type": "Feature",
      "properties": {
        "norad_id": 29737,
        "name": "FENGYUN 1C DEB",
        "group": "fengyun-1c-debris",
        "lat": 76.02246760250398,
        "lon": 171.56359638262836,
        "alt_km": 879.8042872593505,
        "timestamp": "2025-12-21T03:56:51.107696+00:00",
        "meta_object_name": "FENGYUN 1C DEB",
        "meta_object_id": "1999-025AB",
        "meta_epoch": "2025-12-20T16:40:20.154144",
        "meta_mean_motion": 12.65673558,
        "meta_eccentricity": 0.0695435,
        "meta_inclination": 99.5802,
        "meta_ra_of_asc_node": 308.4483,
        "meta_arg_of_pericenter": 121.2034,
        "meta_mean_anomaly": 1.9894,
        "meta_ephemeris_type": 0,
        "meta_classification_type": "U",
        "meta_norad_cat_id": 29737,
        "meta_element_set_no": 999,
        "meta_rev_at_epoch": 86969,
        "meta_bstar": 0.0028508,
        "meta_mean_motion_dot": 1.359e-05,
        "meta_mean_motion_ddot": 0,
        "tle_line1": "1 29737U 99025AB  25354.69467771  .00001359  00000+0  28508-2 0  9991",
        "tle_line2": "2 29737  99.5802 308.4483 0695435 121.2034   1.9894 12.65673558869695"
      },
      "geometry": {
        "type": "Point",
        "coordinates": [
          171.56359638262836,
          76.02246760250398
        ]
      }
    },
    {
      "type": "Feature",
      "properties": {
        "norad_id": 29738,
        "name": "FENGYUN 1C DEB",
        "group": "fengyun-1c-debris",
        "lat": -0.018213592470111666,
        "lon": 160.56545253975207,
        "alt_km": 1291.8146785570698,
        "timestamp": "2025-12-21T03:56:51.107706+00:00",
        "meta_object_name": "FENGYUN 1C DEB",
        "meta_object_id": "1999-025AC",
        "meta_epoch": "2025-12-20T16:31:24.373056",
        "meta_mean_motion": 12.61066767,
        "meta_eccentricity": 0.0865036,
        "meta_inclination": 99.4089,
        "meta_ra_of_asc_node": 160.1732,
        "meta_arg_of_pericenter": 277.2751,
        "meta_mean_anomaly": 73.0915,
        "meta_ephemeris_type": 0,
        "meta_classification_type": "U",
        "meta_norad_cat_id": 29738,
        "meta_element_set_no": 999,
        "meta_rev_at_epoch": 86317,
        "meta_bstar": 0.0021447,
        "meta_mean_motion_dot": 1.6e-05,
        "meta_mean_motion_ddot": 0,
        "tle_line1": "1 29738U 99025AC  25354.68847654  .00001600  00000+0  21447-2 0  9997",
        "tle_line2": "2 29738  99.4089 160.1732 0865036 277.2751  73.0915 12.61066767863171"
      },
      "geometry": {
        "type": "Point",
        "coordinates": [
          160.56545253975207,
          -0.018213592470111666
        ]
      }
    }
  ]
}